COSMOS 2251 DEB         
1 35287U 93036AJR 25333.20218491  .00000435  00000+0  15735-3 0  9994
2 35287  74.0298 301.0117 0017012  41.6812 339.8947 14.36356735866986
COSMOS 2251 DEB         
1 35288U 93036AJS 25332.48118236  .00007074  00000+0  13034-2 0  9995
2 35288  73.9510  42.7592 0039525 277.9993  81.6691 14.65214149876696
COSMOS 2251 DEB         
1 35290U 93036AJU 25333.04366595  .00017705  00000+0  23539-2 0  9997
2 35290  74.0048  86.4636 0003971 208.8822 151.2135 14.79714481877553
COSMOS 2251 DEB         
1 35433U 93036AKB 25330.37371983  .00000726  00000+0  26471-3 0  9990
2 35433  74.0356   8.4339 0025071  68.4557 307.6516 14.34711135863467
COSMOS 2251 DEB         
1 35434U 93036AKC 25333.08976928  .00001657  00000+0  68242-3 0  9998
2 35434  74.0413 238.2602 0087661 311.7971  47.5709 14.25619547859233
COSMOS 2251 DEB         
1 35435U 93036AKD 25332.80554692  .00016052  00000+0  22342-2 0  9993
2 35435  74.0101 131.4729 0009803 220.8372 204.7642 14.77765511873339
