{
  "type": "FeatureCollection",
  "features": [
    {
      "type": "Feature",
      "properties": {
        "OBJECT_NAME": "COSMOS 2251 DEB",
        "OBJECT_ID": "1993-036AJR",
        "EPOCH": "2025-11-29T04:51:08.776224",
        "MEAN_MOTION": 14.36356735,
        "ECCENTRICITY": 0.00170119,
        "INCLINATION": 74.0298,
        "RA_OF_ASC_NODE": 301.0117,
        "ARG_OF_PERICENTER": 41.6812,
        "MEAN_ANOMALY": 339.8947,
        "EPHEMERIS_TYPE": 0,
        "CLASSIFICATION_TYPE": "U",
        "NORAD_CAT_ID": 35287,
        "ELEMENT_SET_NO": 999,
        "REV_AT_EPOCH": 86698,
        "BSTAR": 0.00015735443,
        "MEAN_MOTION_DOT": 4.35e-06,
        "MEAN_MOTION_DDOT": 0,
        "norad_id": 35287,
        "name": "COSMOS 2251 DEB",
        "group": "cosmos-2251-debris",
        "longitude_deg": NaN,
        "latitude_deg": NaN,
        "alt_km": NaN,
        "orbit_class": "HEO",
        "timestamp": "2025-11-30T04:57:05.906678+00:00"
      },
      "geometry": {
        "type": "Point",
        "coordinates": [
          NaN,
          NaN
        ]
      }
    },
    {
      "type": "Feature",
      "properties": {
        "OBJECT_NAME": "COSMOS 2251 DEB",
        "OBJECT_ID": "1993-036AJS",
        "EPOCH": "2025-11-28T11:32:54.155904",
        "MEAN_MOTION": 14.65214149,
        "ECCENTRICITY": 0.00395256,
        "INCLINATION": 73.951,
        "RA_OF_ASC_NODE": 42.7592,
        "ARG_OF_PERICENTER": 277.9993,
        "MEAN_ANOMALY": 81.6691,
        "EPHEMERIS_TYPE": 0,
        "CLASSIFICATION_TYPE": "U",
        "NORAD_CAT_ID": 35288,
        "ELEMENT_SET_NO": 999,
        "REV_AT_EPOCH": 87669,
        "BSTAR": 0.0013034419,
        "MEAN_MOTION_DOT": 7.074e-05,
        "MEAN_MOTION_DDOT": 0,
        "norad_id": 35288,
        "name": "COSMOS 2251 DEB",
        "group": "cosmos-2251-debris",
        "longitude_deg": NaN,
        "latitude_deg": NaN,
        "alt_km": NaN,
        "orbit_class": "HEO",
        "timestamp": "2025-11-30T04:57:05.906685+00:00"
      },
      "geometry": {
        "type": "Point",
        "coordinates": [
          NaN,
          NaN
        ]
      }
    },
    {
      "type": "Feature",
      "properties": {
        "OBJECT_NAME": "COSMOS 2251 DEB",
        "OBJECT_ID": "1993-036AJU",
        "EPOCH": "2025-11-29T01:02:52.738944",
        "MEAN_MOTION": 14.79714481,
        "ECCENTRICITY": 0.00039705,
        "INCLINATION": 74.0048,
        "RA_OF_ASC_NODE": 86.4636,
        "ARG_OF_PERICENTER": 208.8822,
        "MEAN_ANOMALY": 151.2135,
        "EPHEMERIS_TYPE": 0,
        "CLASSIFICATION_TYPE": "U",
        "NORAD_CAT_ID": 35290,
        "ELEMENT_SET_NO": 999,
        "REV_AT_EPOCH": 87755,
        "BSTAR": 0.0023539422,
        "MEAN_MOTION_DOT": 0.00017705,
        "MEAN_MOTION_DDOT": 0,
        "norad_id": 35290,
        "name": "COSMOS 2251 DEB",
        "group": "cosmos-2251-debris",
        "longitude_deg": NaN,
        "latitude_deg": NaN,
        "alt_km": NaN,
        "orbit_class": "HEO",
        "timestamp": "2025-11-30T04:57:05.906691+00:00"
      },
      "geometry": {
        "type": "Point",
        "coordinates": [
          NaN,
          NaN
        ]
      }
    },
    {
      "type": "Feature",
      "properties": {
        "OBJECT_NAME": "COSMOS 2251 DEB",
        "OBJECT_ID": "1993-036AKB",
        "EPOCH": "2025-11-26T08:58:09.393312",
        "MEAN_MOTION": 14.34711135,
        "ECCENTRICITY": 0.00250714,
        "INCLINATION": 74.0356,
        "RA_OF_ASC_NODE": 8.4339,
        "ARG_OF_PERICENTER": 68.4557,
        "MEAN_ANOMALY": 307.6516,
        "EPHEMERIS_TYPE": 0,
        "CLASSIFICATION_TYPE": "U",
        "NORAD_CAT_ID": 35433,
        "ELEMENT_SET_NO": 999,
        "REV_AT_EPOCH": 86346,
        "BSTAR": 0.00026470891,
        "MEAN_MOTION_DOT": 7.26e-06,
        "MEAN_MOTION_DDOT": 0,
        "norad_id": 35433,
        "name": "COSMOS 2251 DEB",
        "group": "cosmos-2251-debris",
        "longitude_deg": NaN,
        "latitude_deg": NaN,
        "alt_km": NaN,
        "orbit_class": "HEO",
        "timestamp": "2025-11-30T04:57:05.906702+00:00"
      },
      "geometry": {
        "type": "Point",
        "coordinates": [
          NaN,
          NaN
        ]
      }
    },
    {
      "type": "Feature",
      "properties": {
        "OBJECT_NAME": "COSMOS 2251 DEB",
        "OBJECT_ID": "1993-036AKC",
        "EPOCH": "2025-11-29T02:09:16.066656",
        "MEAN_MOTION": 14.25619547,
        "ECCENTRICITY": 0.00876615,
        "INCLINATION": 74.0413,
        "RA_OF_ASC_NODE": 238.2602,
        "ARG_OF_PERICENTER": 311.7971,
        "MEAN_ANOMALY": 47.5709,
        "EPHEMERIS_TYPE": 0,
        "CLASSIFICATION_TYPE": "U",
        "NORAD_CAT_ID": 35434,
        "ELEMENT_SET_NO": 999,
        "REV_AT_EPOCH": 85923,
        "BSTAR": 0.00068241693,
        "MEAN_MOTION_DOT": 1.657e-05,
        "MEAN_MOTION_DDOT": 0,
        "norad_id": 35434,
        "name": "COSMOS 2251 DEB",
        "group": "cosmos-2251-debris",
        "longitude_deg": NaN,
        "latitude_deg": NaN,
        "alt_km": NaN,
        "orbit_class": "HEO",
        "timestamp": "2025-11-30T04:57:05.906712+00:00"
      },
      "geometry": {
        "type": "Point",
        "coordinates": [
          NaN,
          NaN
        ]
      }
    },
    {
      "type": "Feature",
      "properties": {
        "OBJECT_NAME": "COSMOS 2251 DEB",
        "OBJECT_ID": "1993-036AKD",
        "EPOCH": "2025-11-28T19:19:59.254752",
        "MEAN_MOTION": 14.77765511,
        "ECCENTRICITY": 0.00098034,
        "INCLINATION": 74.0101,
        "RA_OF_ASC_NODE": 131.4729,
        "ARG_OF_PERICENTER": 220.8372,
        "MEAN_ANOMALY": 204.7642,
        "EPHEMERIS_TYPE": 0,
        "CLASSIFICATION_TYPE": "U",
        "NORAD_CAT_ID": 35435,
        "ELEMENT_SET_NO": 999,
        "REV_AT_EPOCH": 87333,
        "BSTAR": 0.0022341567,
        "MEAN_MOTION_DOT": 0.00016052,
        "MEAN_MOTION_DDOT": 0,
        "norad_id": 35435,
        "name": "COSMOS 2251 DEB",
        "group": "cosmos-2251-debris",
        "longitude_deg": NaN,
        "latitude_deg": NaN,
        "alt_km": NaN,
        "orbit_class": "HEO",
        "timestamp": "2025-11-30T04:57:05.906717+00:00"
      },
      "geometry": {
        "type": "Point",
        "coordinates": [
          NaN,
          NaN
        ]
      }
    }
  ]
}